AMC-3                   
1 24936U 97050A   25110.87527612 -.00000253  00000+0  00000+0 0  9991
2 24936   7.1096  68.8271 0003188 322.1018  61.3635  1.00270366 48201
ASTRA 2A                
1 25462U 98050A   25111.04286836  .00000123  00000+0  00000+0 0  9992
2 25462   6.0276  73.8593 0005363 339.3225 224.3372  0.99436769 97508
NSS-11                  
1 26554U 00059A   25110.85312163  .00000030  00000+0  00000+0 0  9995
2 26554   1.0319  86.3658 0003084 301.3357 304.6103  1.00272723 37057
AMC-6                   
1 26580U 00067A   25110.74454400  .00000093  00000+0  00000+0 0  9991
2 26580   0.0863  76.2955 0002920 312.1636 313.5937  1.00273362 89652
AMC-11                  
1 28252U 04017A   25111.23586455 -.00000046  00000+0  00000+0 0  9998
2 28252   0.0531  63.2287 0003319 340.5719 139.5631  1.00271674 76473
AMC-15                  
1 28446U 04041A   25111.18447713 -.00000085  00000+0  00000+0 0  9990
2 28446   0.0533  63.6538 0002356 328.6724 138.5396  1.00271913 75119
NSS-10                  
1 28526U 05003A   25111.16783603 -.00000244  00000+0  00000+0 0  9994
2 28526   5.3921  75.5359 0003156 312.6542 204.2798  1.00271520 74086
ASTRA 1KR               
1 29055U 06012A   25110.89343412  .00000124  00000+0  00000+0 0  9998
2 29055   0.0250 344.9643 0001140 322.8587 242.2484  1.00269014 41480
ASTRA 1L                
1 31306U 07016A   25111.17904360  .00000125  00000+0  00000+0 0  9993
2 31306   0.2319  76.9567 0003384 318.2939 258.1289  1.00272882 65818
ASTRA 4A                
1 32299U 07057A   25110.89056706  .00000037  00000+0  00000+0 0  9992
2 32299   0.0289 291.1460 0002826 102.0596 141.4311  1.00273733 47417
AMC-21                  
1 33275U 08038B   25110.78201272  .00000042  00000+0  00000+0 0  9991
2 33275   1.8543  85.6820 0002962 311.8320 328.2199  1.00271582 61253
ASTRA 1M                
1 33436U 08057A   25111.17904360  .00000124  00000+0  00000+0 0  9994
2 33436   0.0703  74.7220 0002880   5.2901 213.1189  1.00272481 60240
NSS-9                   
1 33749U 09008A   25110.85451172  .00000076  00000+0  00000+0 0  9996
2 33749   0.1686  80.5660 0002347 313.2016 306.1161  1.00270460 59288
SES-7 (PROTOSTAR 2)     
1 34941U 09027A   25110.91107083 -.00000341  00000+0  00000+0 0  9994
2 34941   0.0849  77.9715 0001590 252.4587 315.0466  1.00270361 58398
NSS-12                  
1 36032U 09058A   25110.91100426  .00000075  00000+0  00000+0 0  9998
2 36032   0.0693  70.9922 0003745 315.2919 207.9166  1.00272406 56680
SES-1                   
1 36516U 10016A   25110.86962890 -.00000110  00000+0  00000+0 0  9997
2 36516   0.0231 295.6420 0002712 101.0929  24.5375  1.00272305 54792
ASTRA 3B                
1 36581U 10021A   25110.84419856  .00000142  00000+0  00000+0 0  9996
2 36581   0.3759  89.4951 0003690 312.5444 134.5497  1.00274292 54634
SES-3                   
1 37748U 11035A   25111.18447713 -.00000097  00000+0  00000+0 0  9999
2 37748   0.2322  85.7572 0002988 305.0735 142.0850  1.00268045 50465
ASTRA 1N                
1 37775U 11041A   25111.17904360  .00000124  00000+0  00000+0 0  9991
2 37775   0.0862  52.1545 0006030 347.5456 253.4732  1.00272641 50174
SES-2                   
1 37809U 11049A   25111.16225476 -.00000192  00000+0  00000+0 0  9996
2 37809   0.0320  25.9814 0003061  15.8970 139.0252  1.00270577 49760
QUETZSAT 1              
1 37826U 11054A   25110.87432044 -.00000237  00000+0  00000+0 0  9999
2 37826   0.0411  66.3735 0002601 331.7865  48.8029  1.00272003 45630
SES-4                   
1 38087U 12007A   25110.83864360 -.00000164  00000+0  00000+0 0  9993
2 38087   0.0140  46.9274 0002507 355.5788  86.5753  1.00271346 47997
SES-5                   
1 38652U 12036A   25110.89003127  .00000038  00000+0  00000+0 0  9994
2 38652   0.0478 308.2211 0002120  85.5676 140.8211  1.00272222 40249
ASTRA 2F                
1 38778U 12051A   25110.89517172  .00000154  00000+0  00000+0 0  9999
2 38778   0.0518 252.2442 0001023  42.8331 264.5963  1.00269577 36907
SES-6                   
1 39172U 13026A   25111.16714098 -.00000257  00000+0  00000+0 0  9993
2 39172   0.0378 294.6406 0002313 106.7274 187.7913  1.00270903 43486
O3B FM5                 
1 39188U 13031A   25110.70930978 -.00000016  00000+0  00000+0 0  9995
2 39188   0.0466 342.2486 0002776  52.8111 324.9597  5.00115321215898
O3B FM2                 
1 39190U 13031C   25108.65767002 -.00000017  00000+0  00000+0 0  9996
2 39190   0.0531  20.2293 0002719  10.2653 329.5226  5.00115798215875
O3B PFM                 
1 39191U 13031D   25110.68209084 -.00000016  00000+0  00000+0 0  9993
2 39191   0.0481 353.2816 0002691  37.1118 329.6233  5.00115192215533
ASTRA 2E                
1 39285U 13056A   25110.89525860  .00000154  00000+0  00000+0 0  9992
2 39285   0.0735 320.0216 0002797  59.7503 180.2389  1.00268978 42189
SES-8                   
1 39460U 13071A   25111.12264031 -.00000266  00000+0  00000+0 0  9996
2 39460   0.0141 253.4084 0002720 166.3150 288.8829  1.00272381 41643
ASTRA 5B                
1 39617U 14011B   25110.89430292  .00000141  00000+0  00000+0 0  9993
2 39617   0.0679 309.6227 0002953  60.1535 184.8946  1.00273182 40433
O3B FM3                 
1 40079U 14038A   25110.73702355 -.00000016  00000+0  00000+0 0  9993
2 40079   0.0507   4.6855 0004494 358.0363 357.2818  5.00115305191916
O3B FM7                 
1 40080U 14038B   25110.68315262 -.00000016  00000+0  00000+0 0  9996
2 40080   0.0463  11.7026 0002685  59.1388 289.1888  5.00115407196743
O3B FM6                 
1 40081U 14038C   25110.31045679 -.00000016  00000+0  00000+0 0  9999
2 40081   0.0493   7.5238 0002790  23.0814 329.4122  5.00115565196672
O3B FM8                 
1 40082U 14038D   25110.96357084 -.00000016  00000+0  00000+0 0  9997
2 40082   0.0487   8.4659 0002627  19.9482 331.6013  5.00115721197025
O3B FM10                
1 40348U 14083A   25110.39044262 -.00000016  00000+0  00000+0 0  9990
2 40348   0.0509  14.1600 0001355  72.7448 273.1119  5.00114847188745
O3B FM11                
1 40349U 14083B   25110.40354058 -.00000016  00000+0  00000+0 0  9990
2 40349   0.0471 356.9823 0002927  46.7096 316.3325  5.00115639188765
O3B FM12                
1 40350U 14083C   25110.23089779 -.00000016  00000+0  00000+0 0  9998
2 40350   0.0476 357.8110 0002913  35.1071 327.1012  5.00115808188762
O3B FM9                 
1 40351U 14083D   25108.65852414 -.00000017  00000+0  00000+0 0  9997
2 40351   0.0461 356.3612 0002679  32.8186 330.8365  5.00115575188839
ASTRA 2G                
1 40364U 14089A   25111.18078122  .00000154  00000+0  00000+0 0  9996
2 40364   0.0514  15.9174 0004812  33.0440 253.8409  1.00273786 37785
SES-9                   
1 41380U 16013A   25110.72197413 -.00000341  00000+0  00000+0 0  9997
2 41380   0.0128 291.4502 0002222 129.8945 155.9291  1.00271690 33204
SES-10                  
1 42432U 17017A   25110.51935556 -.00000268  00000+0  00000+0 0  9994
2 42432   0.0150 324.7471 0002938  82.8152 281.3681  1.00272485 29503
SES-15                  
1 42709U 17026A   25111.22025157  .00000063  00000+0  00000+0 0  9999
2 42709   0.0099  47.3025 0000583 321.1990 151.1685  1.00271645 29952
SES-11 (ECHOSTAR 105)   
1 42967U 17063A   25111.18447713 -.00000086  00000+0  00000+0 0  9993
2 42967   0.0159 316.6147 0003181  66.1850 148.1728  1.00271707 27579
SES-14                  
1 43175U 18012B   25110.85669841 -.00000274  00000+0  00000+0 0  9990
2 43175   0.0325  27.2467 0000990   7.2085  75.6561  1.00271974  2799
O3B FM15                
1 43231U 18024A   25110.32423602 -.00000016  00000+0  00000+0 0  9995
2 43231   0.0553 357.3279 0003051  34.2550 328.4366  5.00115348129878
O3B FM16                
1 43232U 18024B   25110.77655687 -.00000016  00000+0  00000+0 0  9995
2 43232   0.0591 356.1818 0003028  36.4660 327.3720  5.00115641129808
O3B FM14                
1 43233U 18024C   25110.81711716 -.00000016  00000+0  00000+0 0  9997
2 43233   0.0603 357.1745 0002774  33.3446 329.4981  5.00115310129825
O3B FM13                
1 43234U 18024D   25111.07031510 -.00000016  00000+0  00000+0 0  9994
2 43234   0.0241 353.9251 0002466  70.7792 295.3223  5.00115165130085
SES-12                  
1 43488U 18049A   25110.90846442 -.00000266  00000+0  00000+0 0  9998
2 43488   0.0087  64.6302 0001390 254.5509 312.1126  1.00273842 25187
O3B FM20                
1 44112U 19020A   25110.84312897 -.00000016  00000+0  00000+0 0  9991
2 44112   0.0518 358.2728 0003317  37.4833 324.2672  5.00115283110435
O3B FM19                
1 44113U 19020B   25108.87151675 -.00000017  00000+0  00000+0 0  9998
2 44113   0.0363 346.9411 0003388  47.8401 325.2423  5.00115088110215
O3B FM17                
1 44114U 19020C   25110.75034699 -.00000016  00000+0  00000+0 0  9994
2 44114   0.0671  10.3153 0003117  20.9232 328.7811  5.00115092110390
O3B FM18                
1 44115U 19020D   25110.69655274 -.00000016  00000+0  00000+0 0  9996
2 44115   0.0516 357.9654 0002915  32.8354 329.2173  5.00115088110513
SES-17                  
1 49332U 21095A   25111.22688830 -.00000268  00000+0  00000+0 0  9990
2 49332   0.0097 269.1462 0001052 129.2828 185.7062  1.00269949 13608
SES-22                  
1 52933U 22071A   25110.71928314  .00000109  00000+0  00000+0 0  9996
2 52933   0.0112 231.9712 0001114 165.8762 291.1316  1.00269735  3284
SES-20                  
1 53960U 22123A   25111.01193895 -.00000097  00000+0  00000+0 0  9994
2 53960   0.0346  86.7780 0002148 337.1628  46.6035  1.00269563  9295
SES-21                  
1 53961U 22123B   25111.22079505  .00000073  00000+0  00000+0 0  9992
2 53961   0.0158  50.2039 0000895 337.1837 130.6257  1.00268999  9314
O3B MPOWER F1           
1 54755U 22174A   25110.90559737 -.00000016  00000+0  00000+0 0  9992
2 54755   0.0409  11.0616 0004757   4.6813 221.9809  5.00116590 44232
O3B MPOWER F2           
1 54756U 22174B   25110.70725566 -.00000016  00000+0  00000+0 0  9996
2 54756   0.0433  15.2916 0005776  12.6155 332.1250  5.00116383 44290
SES-18                  
1 55970U 23038A   25111.01193895 -.00000097  00000+0  00000+0 0  9993
2 55970   0.0103 246.6666 0001212  94.4910 129.3798  1.00271292  7887
SES-19                  
1 55971U 23038B   25110.74192016  .00000092  00000+0  00000+0 0  9991
2 55971   0.0202 284.0162 0002025 108.4382 308.8094  1.00269955  7838
O3B MPOWER F4           
1 56367U 23059A   25110.80667409 -.00000016  00000+0  00000+0 0  9991
2 56367   0.0437 347.7652 0004253  32.7233 339.5296  5.00117252 37472
O3B MPOWER F3           
1 56368U 23059B   25111.07349153 -.00000016  00000+0  00000+0 0  9995
2 56368   0.0445 346.0042 0006271  41.1923 332.8374  5.00116570 37643
O3B MPOWER F5           
1 58346U 23175A   25110.14030858 -.00000016  00000+0  00000+0 0  9998
2 58346   0.0639 356.8847 0006731  20.0732 343.0658  5.00116987 28273
O3B MPOWER F6           
1 58347U 23175B   25111.03986861 -.00000016  00000+0  00000+0 0  9992
2 58347   0.0558 355.5967 0007578  37.5447 326.9071  5.00117443 28221
ASTRA 1P (SES-24)       
1 60086U 24115A   25111.03617856  .00000124  00000+0  00000+0 0  9994
2 60086   0.0784 316.4804 0004129  19.4938 265.6193  1.00271012  3095
